{
  "type": "FeatureCollection",
  "features": [
    {
      "type": "Feature",
      "properties": {
        "norad_id": 34614,
        "name": "COSMOS 2251 DEB",
        "group": "cosmos-2251-debris",
        "lat": -10.093068460046869,
        "lon": -21.75953901721765,
        "alt_km": 699.497419147946,
        "timestamp": "2025-12-14T05:42:18.857394+00:00",
        "meta_object_name": "COSMOS 2251 DEB",
        "meta_object_id": "1993-036WK",
        "meta_epoch": "2025-12-13T01:13:19.013664",
        "meta_mean_motion": 14.17517102,
        "meta_eccentricity": 0.01975509,
        "meta_inclination": 73.8804,
        "meta_ra_of_asc_node": 343.326,
        "meta_arg_of_pericenter": 337.1792,
        "meta_mean_anomaly": 77.7807,
        "meta_ephemeris_type": 0,
        "meta_classification_type": "U",
        "meta_norad_cat_id": 34614,
        "meta_element_set_no": 999,
        "meta_rev_at_epoch": 84771,
        "meta_bstar": 0.0088054946,
        "meta_mean_motion_dot": 0.0002169,
        "meta_mean_motion_ddot": 0,
        "tle_line1": "1 34614U 93036WK  25347.05091451  .00021690  00000+0  88055-2 0  9990",
        "tle_line2": "2 34614  73.8804 343.3260 0197550 337.1792  77.7807 14.17517102847712"
      },
      "geometry": {
        "type": "Point",
        "coordinates": [
          -21.75953901721765,
          -10.093068460046869
        ]
      }
    },
    {
      "type": "Feature",
      "properties": {
        "norad_id": 34615,
        "name": "COSMOS 2251 DEB",
        "group": "cosmos-2251-debris",
        "lat": -67.55014944131432,
        "lon": 155.70144314679564,
        "alt_km": 893.225935404459,
        "timestamp": "2025-12-14T05:42:18.857404+00:00",
        "meta_object_name": "COSMOS 2251 DEB",
        "meta_object_id": "1993-036WL",
        "meta_epoch": "2025-12-11T15:13:30.717120",
        "meta_mean_motion": 13.52202046,
        "meta_eccentricity": 0.04013404,
        "meta_inclination": 74.005,
        "meta_ra_of_asc_node": 295.914,
        "meta_arg_of_pericenter": 203.3816,
        "meta_mean_anomaly": 338.769,
        "meta_ephemeris_type": 0,
        "meta_classification_type": "U",
        "meta_norad_cat_id": 34615,
        "meta_element_set_no": 999,
        "meta_rev_at_epoch": 82800,
        "meta_bstar": 0.00021166372,
        "meta_mean_motion_dot": 2.1e-06,
        "meta_mean_motion_ddot": 0,
        "tle_line1": "1 34615U 93036WL  25345.63438330  .00000210  00000+0  21166-3 0  9990",
        "tle_line2": "2 34615  74.0050 295.9140 0401340 203.3816 338.7690 13.52202046828001"
      },
      "geometry": {
        "type": "Point",
        "coordinates": [
          155.70144314679564,
          -67.55014944131432
        ]
      }
    },
    {
      "type": "Feature",
      "properties": {
        "norad_id": 34619,
        "name": "COSMOS 2251 DEB",
        "group": "cosmos-2251-debris",
        "lat": 43.04138526813387,
        "lon": -147.44215729411403,
        "alt_km": 700.6722506166761,
        "timestamp": "2025-12-14T05:42:18.857415+00:00",
        "meta_object_name": "COSMOS 2251 DEB",
        "meta_object_id": "1993-036WQ",
        "meta_epoch": "2025-12-13T06:32:57.785856",
        "meta_mean_motion": 14.64648644,
        "meta_eccentricity": 0.00947184,
        "meta_inclination": 74.0441,
        "meta_ra_of_asc_node": 198.9146,
        "meta_arg_of_pericenter": 293.6523,
        "meta_mean_anomaly": 65.4724,
        "meta_ephemeris_type": 0,
        "meta_classification_type": "U",
        "meta_norad_cat_id": 34619,
        "meta_element_set_no": 999,
        "meta_rev_at_epoch": 89306,
        "meta_bstar": 0.00035297144,
        "meta_mean_motion_dot": 1.97e-05,
        "meta_mean_motion_ddot": 0,
        "tle_line1": "1 34619U 93036WQ  25347.27289104  .00001970  00000+0  35297-3 0  9993",
        "tle_line2": "2 34619  74.0441 198.9146 0094718 293.6523  65.4724 14.64648644893063"
      },
      "geometry": {
        "type": "Point",
        "coordinates": [
          -147.44215729411403,
          43.04138526813387
        ]
      }
    },
    {
      "type": "Feature",
      "properties": {
        "norad_id": 34620,
        "name": "COSMOS 2251 DEB",
        "group": "cosmos-2251-debris",
        "lat": -17.176567625064365,
        "lon": 41.797277743631675,
        "alt_km": 699.8580207182258,
        "timestamp": "2025-12-14T05:42:18.857425+00:00",
        "meta_object_name": "COSMOS 2251 DEB",
        "meta_object_id": "1993-036WR",
        "meta_epoch": "2025-12-13T00:37:17.720256",
        "meta_mean_motion": 14.49111919,
        "meta_eccentricity": 0.00806252,
        "meta_inclination": 74.0516,
        "meta_ra_of_asc_node": 218.9958,
        "meta_arg_of_pericenter": 255.3546,
        "meta_mean_anomaly": 103.8666,
        "meta_ephemeris_type": 0,
        "meta_classification_type": "U",
        "meta_norad_cat_id": 34620,
        "meta_element_set_no": 999,
        "meta_rev_at_epoch": 86831,
        "meta_bstar": 0.0030494488,
        "meta_mean_motion_dot": 0.00012073,
        "meta_mean_motion_ddot": 0,
        "tle_line1": "1 34620U 93036WR  25347.02589954  .00012073  00000+0  30494-2 0  9993",
        "tle_line2": "2 34620  74.0516 218.9958 0080625 255.3546 103.8666 14.49111919868319"
      },
      "geometry": {
        "type": "Point",
        "coordinates": [
          41.797277743631675,
          -17.176567625064365
        ]
      }
    },
    {
      "type": "Feature",
      "properties": {
        "norad_id": 34622,
        "name": "COSMOS 2251 DEB",
        "group": "cosmos-2251-debris",
        "lat": 47.853093267753316,
        "lon": -37.24544812770643,
        "alt_km": 745.0521223096666,
        "timestamp": "2025-12-14T05:42:18.857435+00:00",
        "meta_object_name": "COSMOS 2251 DEB",
        "meta_object_id": "1993-036WT",
        "meta_epoch": "2025-12-13T08:13:58.890144",
        "meta_mean_motion": 14.2205095,
        "meta_eccentricity": 0.01044099,
        "meta_inclination": 74.0424,
        "meta_ra_of_asc_node": 305.9293,
        "meta_arg_of_pericenter": 28.2349,
        "meta_mean_anomaly": 123.4294,
        "meta_ephemeris_type": 0,
        "meta_classification_type": "U",
        "meta_norad_cat_id": 34622,
        "meta_element_set_no": 999,
        "meta_rev_at_epoch": 86468,
        "meta_bstar": 0.0015059909,
        "meta_mean_motion_dot": 3.497e-05,
        "meta_mean_motion_ddot": 0,
        "tle_line1": "1 34622U 93036WT  25347.34304271  .00003497  00000+0  15060-2 0  9999",
        "tle_line2": "2 34622  74.0424 305.9293 0104409  28.2349 123.4294 14.22050950864682"
      },
      "geometry": {
        "type": "Point",
        "coordinates": [
          -37.24544812770643,
          47.853093267753316
        ]
      }
    },
    {
      "type": "Feature",
      "properties": {
        "norad_id": 34626,
        "name": "COSMOS 2251 DEB",
        "group": "cosmos-2251-debris",
        "lat": 33.13962201093425,
        "lon": 130.21970758657218,
        "alt_km": 653.6778034931331,
        "timestamp": "2025-12-14T05:42:18.857445+00:00",
        "meta_object_name": "COSMOS 2251 DEB",
        "meta_object_id": "1993-036WX",
        "meta_epoch": "2025-12-13T16:49:12.336672",
        "meta_mean_motion": 14.72213867,
        "meta_eccentricity": 0.00265782,
        "meta_inclination": 74.0484,
        "meta_ra_of_asc_node": 322.0255,
        "meta_arg_of_pericenter": 49.9528,
        "meta_mean_anomaly": 130.7236,
        "meta_ephemeris_type": 0,
        "meta_classification_type": "U",
        "meta_norad_cat_id": 34626,
        "meta_element_set_no": 999,
        "meta_rev_at_epoch": 89158,
        "meta_bstar": 0.0012097663,
        "meta_mean_motion_dot": 7.65e-05,
        "meta_mean_motion_ddot": 0,
        "tle_line1": "1 34626U 93036WX  25347.70083723  .00007650  00000+0  12098-2 0  9992",
        "tle_line2": "2 34626  74.0484 322.0255 0026578  49.9528 130.7236 14.72213867891588"
      },
      "geometry": {
        "type": "Point",
        "coordinates": [
          130.21970758657218,
          33.13962201093425
        ]
      }
    },
    {
      "type": "Feature",
      "properties": {
        "norad_id": 34634,
        "name": "COSMOS 2251 DEB",
        "group": "cosmos-2251-debris",
        "lat": -40.70533099266983,
        "lon": -133.6224652486065,
        "alt_km": 709.7248626077417,
        "timestamp": "2025-12-14T05:42:18.857455+00:00",
        "meta_object_name": "COSMOS 2251 DEB",
        "meta_object_id": "1993-036XF",
        "meta_epoch": "2025-12-13T14:33:11.452320",
        "meta_mean_motion": 14.55662482,
        "meta_eccentricity": 0.00440986,
        "meta_inclination": 74.0531,
        "meta_ra_of_asc_node": 33.3321,
        "meta_arg_of_pericenter": 140.4838,
        "meta_mean_anomaly": 14.546,
        "meta_ephemeris_type": 0,
        "meta_classification_type": "U",
        "meta_norad_cat_id": 34634,
        "meta_element_set_no": 999,
        "meta_rev_at_epoch": 88794,
        "meta_bstar": 0.00044657172,
        "meta_mean_motion_dot": 1.948e-05,
        "meta_mean_motion_ddot": 0,
        "tle_line1": "1 34634U 93036XF  25347.60638255  .00001948  00000+0  44657-3 0  9997",
        "tle_line2": "2 34634  74.0531  33.3321 0044098 140.4838  14.5460 14.55662482887949"
      },
      "geometry": {
        "type": "Point",
        "coordinates": [
          -133.6224652486065,
          -40.70533099266983
        ]
      }
    }
  ]
}